OBJECT_NAME,OBJECT_ID,EPOCH,MEAN_MOTION,ECCENTRICITY,INCLINATION,RA_OF_ASC_NODE,ARG_OF_PERICENTER,MEAN_ANOMALY,EPHEMERIS_TYPE,CLASSIFICATION_TYPE,NORAD_CAT_ID,ELEMENT_SET_NO,REV_AT_EPOCH,BSTAR,MEAN_MOTION_DOT,MEAN_MOTION_DDOT
PROBA-1,2001-049B,2026-06-07T05:54:47.442816,15.07449997,.00554292,97.9597,166.4323,155.0839,205.3083,0,U,26958,999,34212,.15081748E-3,.2295E-4,0
CUTE-1 (CO-55),2003-031E,2026-06-06T11:59:55.616928,14.24329258,.0008851,98.6735,166.1932,210.1158,149.9513,0,U,27844,999,19015,.15775E-3,.321E-5,0
CUBESAT XI-IV (CO-57),2003-031J,2026-06-06T13:16:47.996256,14.23615194,.00084595,98.6767,165.9671,230.3427,129.7005,0,U,27848,999,18986,.13659001E-3,.268E-5,0
APRIZESAT 4,2009-041D,2026-06-06T22:33:33.733728,14.83865753,.00431307,98.1412,233.0561,356.6971,3.3951,0,U,35684,999,90984,.95106808E-4,.743E-5,0
APRIZESAT 3,2009-041F,2026-06-07T03:13:39.608544,14.96213054,.006282,98.2056,310.8781,100.0489,260.7827,0,U,35686,999,91487,.11886924E-3,.1326E-4,0
PROBA-2,2009-059B,2026-06-06T18:52:40.261440,14.54857997,.00123231,98.2451,341.2838,317.2726,42.7512,0,U,36037,999,88001,.58854199E-4,.207E-5,0
APRIZESAT 5,2011-044E,2026-06-07T01:49:27.474816,14.81053635,.0053104,98.2452,90.8301,36.5494,323.9323,0,U,37792,999,79729,.16260109E-3,.1232E-4,0
APRIZESAT 6,2011-044F,2026-06-05T12:23:27.282336,14.76898404,.00442385,98.2372,66.7773,122.3000,58.2477,0,U,37793,999,79542,.12179529E-3,.814E-5,0
PROBA-V,2013-021A,2026-06-07T05:00:57.320064,14.23594900,.00046663,98.3579,137.3085,147.6602,212.4864,0,U,39159,999,67969,.58534617E-4,.92E-6,0
APRIZESAT 7,2013-066A,2026-06-06T03:38:42.718848,14.91541126,.0034355,97.7702,110.5307,247.0865,112.6726,0,U,39416,999,67958,.15777E-3,.154E-4,0
APRIZESAT 8,2013-066K,2026-06-07T02:52:03.143712,14.87632925,.00449421,97.8217,105.7282,320.6663,39.1291,0,U,39425,999,67817,.13217137E-3,.1166E-4,0
BUGSAT-1 (TITA),2014-033E,2026-06-07T06:20:55.836096,15.15481294,.00273395,98.0420,250.2335,212.7028,147.2511,0,U,40014,999,65433,.43495897E-3,.8237E-4,0
SAUDISAT 4,2014-033G,2026-06-06T15:16:08.392800,14.79530218,.0046185,97.7572,304.1370,107.2479,253.3795,0,U,40016,999,64451,.1214E-3,.873E-5,0
APRIZESAT 9,2014-033J,2026-06-07T02:15:46.802016,14.74201136,.00650329,97.9049,291.5403,231.9878,127.5448,0,U,40018,999,64207,.10760343E-3,.681E-5,0
APRIZESAT 10,2014-033K,2026-06-05T21:39:03.989664,14.70872885,.0077719,97.9637,284.1142,310.4913,48.9538,0,U,40019,999,64059,.83483E-4,.481E-5,0
TECHDEMOSAT-1 (TDS-1),2014-037H,2026-06-07T05:45:14.085504,15.13147655,.00047197,98.3817,149.4683,312.3644,47.7185,0,U,40076,999,64672,.53188623E-3,.9359E-4,0
TECHNOSAT,2017-042E,2026-06-07T00:14:02.158944,15.04893850,.00189227,97.4271,316.0569,126.2064,234.0916,0,U,42829,999,48517,.22363965E-3,.3117E-4,0
FLYING LAPTOP,2017-042G,2026-06-07T07:40:45.911712,15.01081705,.00190102,97.4653,314.2358,153.8139,206.4051,0,U,42831,999,48497,.34860958E-3,.4419E-4,0
HAWK-A,2018-099H,2026-06-06T15:35:44.876544,15.24517294,.00336715,97.3914,210.0235,324.6995,35.2013,0,U,43765,999,41149,.29691407E-3,.7347E-4,0
HAWK-B,2018-099AN,2026-06-06T20:32:36.622752,15.22711194,.0031343,97.3965,209.6638,342.6540,17.3623,0,U,43794,999,41146,.28842131E-3,.6744E-4,0
HAWK-C,2018-099AT,2026-06-06T21:53:24.478368,15.27957982,.00393298,97.3891,211.1447,323.6382,36.2186,0,U,43799,999,41234,.32043358E-3,.8868E-4,0
SALSAT,2020-068K,2026-06-06T17:52:38.014752,15.29647918,.00090499,97.8851,160.1753,349.8452,10.2602,0,U,46495,999,31376,.35497906E-3,.10129E-3,0
HAWK-2A,2021-006CW,2026-06-06T15:45:39.809664,15.34550344,.00050013,97.2322,202.8491,231.0748,129.0050,0,U,47505,999,29788,.22534164E-3,.7467E-4,0
HAWK-2B,2021-006CZ,2026-06-06T21:55:36.121728,15.34626064,.00055608,97.2194,201.4494,226.7594,133.3186,0,U,47508,999,29792,.25665683E-3,.8538E-4,0
HAWK-3B,2021-059BE,2026-06-06T11:35:31.444512,15.68648218,.00039432,97.6678,353.1855,19.0571,341.0837,0,U,48931,999,27617,.45687549E-3,.51989E-3,0
HAWK-3C,2021-059BX,2026-06-06T19:14:21.722784,15.68684182,.00045151,97.6799,359.2017,18.2395,341.9027,0,U,48948,999,27622,.45096978E-3,.51393E-3,0
HAWK-3A,2021-059CG,2026-06-06T19:14:12.977376,15.68681440,.00045229,97.6740,356.4157,20.0334,340.1103,0,U,48957,999,27622,.43622897E-3,.49694E-3,0
HAWK-5C,2022-057Y,2026-06-06T09:36:22.593600,15.51004853,.00054095,97.6586,316.3762,114.0834,246.0984,0,U,52754,999,22467,.46630972E-3,.27044E-3,0
HAWK-5B,2022-057AA,2026-06-06T15:47:46.699296,15.51016567,.00060222,97.6598,314.9992,106.4779,253.7134,0,U,52756,999,22471,.43170456E-3,.25037E-3,0
